[{"OBJECT_NAME":"STARLINK-31013","OBJECT_ID":"2023-191U","EPOCH":"2026-03-09T10:31:58.982304","MEAN_MOTION":15.05312624,"ECCENTRICITY":9.596e-5,"INCLINATION":43.0005,"RA_OF_ASC_NODE":106.4881,"ARG_OF_PERICENTER":8.2742,"MEAN_ANOMALY":351.8118,"EPHEMERIS_TYPE":0,"CLASSIFICATION_TYPE":"U","NORAD_CAT_ID":58526,"ELEMENT_SET_NO":999,"REV_AT_EPOCH":12541,"BSTAR":0.0019974711,"MEAN_MOTION_DOT":0.00028971,"MEAN_MOTION_DDOT":0},{"OBJECT_NAME":"FENGYUN 1C DEB","OBJECT_ID":"1999-025CKD","EPOCH":"2026-02-28T13:50:26.166336","MEAN_MOTION":14.88090782,"ECCENTRICITY":0.00820173,"INCLINATION":99.4445,"RA_OF_ASC_NODE":2.7077,"ARG_OF_PERICENTER":355.7359,"MEAN_ANOMALY":4.3144,"EPHEMERIS_TYPE":0,"CLASSIFICATION_TYPE":"U","NORAD_CAT_ID":31878,"ELEMENT_SET_NO":999,"REV_AT_EPOCH":99250,"BSTAR":0.001844343,"MEAN_MOTION_DOT":0.00018017,"MEAN_MOTION_DDOT":0}]
